STARLINK-2069_new
1 17359C 21005L   21326.14167460  .00008872  00000-0  59447-3 0  3260
2 17359  53.0530 258.1092 0002154  65.9275 245.1622 15.06387373    15
STARLINK-2069_old
1 27359C 21005L   21325.14617723 -.00017579  00000-0 -11778-2 0  3250
2 27359  53.0529 262.5781 0002102  66.2726 243.1971 15.06417239    15
